     2.100          NAVIGATION                              RINEX VERSION / TYPE
fic2rin                                 02/09/2016 00:19:55 PGM / RUN BY / DATE
                                                            END OF HEADER
20 16  2  8 14  0  0.0  .391410663724D-03  .261479726760D-11  .000000000000D+00
     .110000000000D+03  .318750000000D+02  .538343852754D-08  .543466798671D+00
     .184588134289D-05  .489988445770D-02  .109914690256D-04  .515369424057D+04
     .136800000000D+06 -.186264514923D-08  .681011519503D+00  .409781932831D-07
     .926387569155D+00  .151000000000D+03  .133152571601D+01 -.846785272005D-08
     .646455498895D-09  .100000000000D+01  .188300000000D+04  .000000000000D+00
     .240000000000D+01  .000000000000D+00 -.838190317154D-08  .110000000000D+03
     .129606000000D+06  .400000000000D+01
21 16  2  8 14  0  0.0 -.509423203766D-03 -.193267624127D-11  .000000000000D+00
     .540000000000D+02 -.142562500000D+03  .468876673453D-08 -.255521070395D+01
    -.746734440327D-05  .231015982572D-01  .102967023849D-04  .515368381691D+04
     .136800000000D+06  .333413481712D-06 -.308849127572D+00  .204890966415D-07
     .936037956961D+00  .157437500000D+03 -.183333440825D+01 -.782961184905D-08
     .178578867098D-11  .100000000000D+01  .188300000000D+04  .000000000000D+00
     .240000000000D+01  .000000000000D+00 -.116415321827D-07  .540000000000D+02
     .129606000000D+06  .400000000000D+01
23 16  2  8 14  0  0.0 -.159030314535D-03 -.193267624127D-11  .000000000000D+00
     .190000000000D+02 -.212812500000D+02  .548558563952D-08  .228134452659D-01
    -.113248825073D-05  .104645777028D-01  .383704900742D-05  .515372054672D+04
     .136800000000D+06  .000000000000D+00  .180932746321D+01  .894069671631D-07
     .946145973338D+00  .294000000000D+03 -.261363525889D+01 -.878643741896D-08
    -.352157525917D-09  .100000000000D+01  .188300000000D+04  .000000000000D+00
     .240000000000D+01  .000000000000D+00 -.200234353542D-07  .190000000000D+02
     .129606000000D+06  .400000000000D+01
24 16  2  8 14  0  0.0 -.120368786156D-04 -.568434188608D-12  .000000000000D+00
     .170000000000D+02 -.105937500000D+02  .452983154281D-08 -.591590028705D+00
    -.653788447380D-06  .423834274989D-02  .127609819174D-04  .515363744736D+04
     .136800000000D+06  .987201929092D-07  .283554214097D+01  .130385160446D-07
     .950936702353D+00  .127968750000D+03  .356157427386D+00 -.801711965950D-08
    -.690743057935D-09  .100000000000D+01  .188300000000D+04  .000000000000D+00
     .240000000000D+01  .000000000000D+00  .232830643654D-08  .170000000000D+02
     .129606000000D+06  .400000000000D+01
25 16  2  8 14  0  0.0 -.113460700959D-03 -.659383658785D-11  .000000000000D+00
     .150000000000D+02  .140250000000D+03  .392587781428D-08 -.252647343963D+01
     .726059079170D-05  .510897056665D-02  .848993659019D-05  .515356309700D+04
     .136800000000D+06  .745058059692D-08 -.237880762101D+01 -.670552253723D-07
     .978697111897D+00  .225312500000D+03  .695506844755D+00 -.785675583685D-08
     .512521348571D-09  .100000000000D+01  .188300000000D+04  .000000000000D+00
     .240000000000D+01  .000000000000D+00  .558793544769D-08  .150000000000D+02
     .129606000000D+06  .400000000000D+01
26 16  2  8 14  0  0.0 -.245913863182D-03 -.159161572810D-10  .000000000000D+00
     .240000000000D+02  .138531250000D+03  .439232581514D-08 -.308124353336D+01
     .732578337193D-05  .822879723273D-03  .782869756222D-05  .515371121407D+04
     .136800000000D+06 -.558793544769D-08 -.238586728038D+01 -.242143869400D-07
     .960719939213D+00  .229312500000D+03 -.129340692336D+00 -.814605360154D-08
     .444661379074D-09  .100000000000D+01  .188300000000D+04  .000000000000D+00
     .240000000000D+01  .000000000000D+00  .698491930962D-08  .240000000000D+02
     .129606000000D+06  .400000000000D+01
27 16  2  8 14  0  0.0  .609070993960D-04  .352429196937D-11  .000000000000D+00
     .300000000000D+02 -.365312500000D+02  .470448167483D-08  .133002323770D+01
    -.198930501938D-05  .315472134389D-02  .813975930214D-06  .515363389397D+04
     .136800000000D+06  .856816768646D-07 -.133630085471D+01  .242143869400D-07
     .969859372159D+00  .367312500000D+03  .206656070821D+00 -.858464329914D-08
    -.104290058385D-09  .100000000000D+01  .188300000000D+04  .000000000000D+00
     .240000000000D+01  .000000000000D+00  .139698386192D-08  .300000000000D+02
     .129606000000D+06  .400000000000D+01
28 16  2  8 14  0  0.0  .501013360918D-03  .272848410532D-11  .000000000000D+00
     .580000000000D+02  .141625000000D+03  .373586989969D-08  .204310549248D+01
     .709854066372D-05  .199548262171D-01  .659562647343D-05  .515362505913D+04
     .136800000000D+06  .365078449249D-06 -.230536548638D+01 -.238418579102D-06
     .989527422132D+00  .262250000000D+03 -.162345212469D+01 -.763531804164D-08
     .501449458811D-09  .100000000000D+01  .188300000000D+04  .000000000000D+00
     .240000000000D+01  .000000000000D+00 -.107102096081D-07  .580000000000D+02
     .129606000000D+06  .400000000000D+01
29 16  2  8 14  0  0.0  .653790775687D-03  .795807864051D-12  .000000000000D+00
     .250000000000D+02 -.446250000000D+02  .457376194412D-08 -.241312523754D+01
    -.225380063057D-05  .102664669976D-02  .890344381332D-06  .515361474037D+04
     .136800000000D+06 -.167638063431D-07 -.127738076698D+01  .745058059692D-07
     .975876250351D+00  .370406250000D+03 -.573413239386D+00 -.848142471395D-08
    -.967897459671D-10  .100000000000D+01  .188300000000D+04  .000000000000D+00
     .240000000000D+01  .000000000000D+00 -.102445483208D-07  .250000000000D+02
     .129606000000D+06  .400000000000D+01
30 16  2  8 14  0  0.0  .940603204072D-04  .443378667114D-11  .000000000000D+00
     .820000000000D+02  .181250000000D+02  .431339395589D-08 -.148387864223D+01
     .813975930214D-06  .167542195413D-02  .129397958517D-04  .515364439011D+04
     .136800000000D+06 -.260770320892D-07  .292646820644D+01 -.242143869400D-07
     .953665869657D+00  .126843750000D+03  .303692109470D+01 -.780532512312D-08
    -.503592405216D-09  .100000000000D+01  .188300000000D+04  .000000000000D+00
     .240000000000D+01  .000000000000D+00  .325962901115D-08  .820000000000D+02
     .129606000000D+06  .400000000000D+01
31 16  2  8 14  0  0.0  .283559784293D-03 -.159161572810D-11  .000000000000D+00
     .320000000000D+02 -.637500000000D+01  .400230956940D-08 -.159370486466D+01
    -.400468707085D-06  .835303217173D-02  .130180269480D-04  .515369379234D+04
     .136800000000D+06 -.115483999252D-06  .288965241444D+01 -.353902578354D-07
     .972711328028D+00  .138625000000D+03 -.435184360044D+00 -.773425073402D-08
    -.432518016111D-09  .100000000000D+01  .188300000000D+04  .000000000000D+00
     .240000000000D+01  .000000000000D+00 -.135041773319D-07  .320000000000D+02
     .129606000000D+06  .400000000000D+01
 1 16  2  8 13 59 44.0  .112126581371D-04  .102318153949D-11  .000000000000D+00
     .500000000000D+01 -.108156250000D+03  .431017953628D-08 -.852060967417D+00
    -.569038093090D-05  .502103543840D-02  .115167349577D-04  .515365986252D+04
     .136784000000D+06  .115483999252D-06 -.278472117881D+00  .614672899246D-07
     .964164580251D+00  .159031250000D+03  .469946081929D+00 -.794461663946D-08
    -.156077929844D-09  .100000000000D+01  .188300000000D+04  .000000000000D+00
     .240000000000D+01  .000000000000D+00  .512227416039D-08  .500000000000D+01
     .132006000000D+06  .400000000000D+01
 1 16  2  8 15 59 44.0  .112196430564D-04  .102318153949D-11  .000000000000D+00
     .160000000000D+02 -.111750000000D+03  .424231956678D-08  .198373435347D+00
    -.586360692978D-05  .502297084313D-02  .107679516077D-04  .515366410446D+04
     .143984000000D+06  .577419996262D-07 -.278529594470D+00  .279396772385D-07
     .964163215348D+00  .176656250000D+03  .469697271748D+00 -.800569061201D-08
    -.146434671020D-09  .100000000000D+01  .188300000000D+04  .000000000000D+00
     .240000000000D+01  .000000000000D+00  .512227416039D-08  .160000000000D+02
     .136806000000D+06  .400000000000D+01
 2 16  2  8 16  0  0.0  .599547289312D-03  .113686837722D-12  .000000000000D+00
     .930000000000D+02 -.115437500000D+03  .481841499204D-08  .689511187651D+00
    -.608526170254D-05  .154140044469D-01  .111628323793D-04  .515372627258D+04
     .144000000000D+06 -.195577740669D-06 -.321665657774D+00  .108033418655D-06
     .942865454154D+00  .157625000000D+03 -.217123486085D+01 -.841892211047D-08
    -.319656172105D-09  .100000000000D+01  .188300000000D+04  .000000000000D+00
     .240000000000D+01  .000000000000D+00 -.204890966415D-07  .930000000000D+02
     .136806000000D+06  .400000000000D+01
 3 16  2  8 16  0  0.0 -.220746733248D-04 -.477484718431D-11  .000000000000D+00
     .390000000000D+02  .394062500000D+02  .467626621383D-08  .285236749973D+01
     .208429992199D-05  .300175859593D-03  .101048499346D-04  .515377322578D+04
     .144000000000D+06 -.502914190292D-07  .762107815615D+00 -.279396772385D-07
     .959332449190D+00  .187093750000D+03  .303860659576D+01 -.804747806691D-08
     .686100007391D-09  .100000000000D+01  .188300000000D+04  .000000000000D+00
     .240000000000D+01  .000000000000D+00  .186264514923D-08  .390000000000D+02
     .136806000000D+06  .400000000000D+01
 5 16  2  8 16  0  0.0 -.147907994688D-03  .341060513165D-11  .000000000000D+00
     .570000000000D+02  .492187500000D+02  .500663711796D-08  .313808619549D+01
     .250898301601D-05  .456655863672D-02  .102724879980D-04  .515372771454D+04
     .144000000000D+06 -.540167093277D-07  .751653172503D+00 -.149011611938D-07
     .946454615405D+00  .175156250000D+03  .483828018796D+00 -.812783855710D-08
     .718601361203D-09  .100000000000D+01  .188300000000D+04  .000000000000D+00
     .240000000000D+01  .000000000000D+00 -.107102096081D-07  .570000000000D+02
     .136806000000D+06  .400000000000D+01
